{
    "links": {
        "self": "http://www.neowsapp.com/rest/v1/neo/3627005?api_key=iIulBulltgU6a56xZRHN4H3l9WmuAYTsLGpBGhQ2"
    },
    "id": "3627005",
    "neo_reference_id": "3627005",
    "name": "(2013 CF129)",
    "designation": "2013 CF129",
    "nasa_jpl_url": "http://ssd.jpl.nasa.gov/sbdb.cgi?sstr=3627005",
    "absolute_magnitude_h": 26.1,
    "estimated_diameter": {
        "kilometers": {
            "estimated_diameter_min": 0.0160160338,
            "estimated_diameter_max": 0.0358129403
        },
        "meters": {
            "estimated_diameter_min": 16.0160337979,
            "estimated_diameter_max": 35.8129403019
        },
        "miles": {
            "estimated_diameter_min": 0.0099518989,
            "estimated_diameter_max": 0.0222531225
        },
        "feet": {
            "estimated_diameter_min": 52.5460443254,
            "estimated_diameter_max": 117.4965270602
        }
    },
    "is_potentially_hazardous_asteroid": false,
    "close_approach_data": [
        {
            "close_approach_date": "1970-03-26",
            "close_approach_date_full": "1970-Mar-26 00:07",
            "epoch_date_close_approach": 7258020000,
            "relative_velocity": {
                "kilometers_per_second": "12.6115930283",
                "kilometers_per_hour": "45401.7349018508",
                "miles_per_hour": "28210.8724449862"
            },
            "miss_distance": {
                "astronomical": "0.2200290673",
                "lunar": "85.5913071797",
                "kilometers": "32915879.806166651",
                "miles": "20452979.2942997438"
            },
            "orbiting_body": "Earth"
        },
        {
            "close_approach_date": "2013-02-12",
            "close_approach_date_full": "2013-Feb-12 09:27",
            "epoch_date_close_approach": 1360661220000,
            "relative_velocity": {
                "kilometers_per_second": "6.7030915228",
                "kilometers_per_hour": "24131.1294819822",
                "miles_per_hour": "14994.1454272905"
            },
            "miss_distance": {
                "astronomical": "0.0246001413",
                "lunar": "9.5694549657",
                "kilometers": "3680128.740179031",
                "miles": "2286725.9622553878"
            },
            "orbiting_body": "Earth"
        }
    ],
    "orbital_data": {
        "orbit_id": "5",
        "orbit_determination_date": "2019-07-18 07:26:53",
        "first_observation_date": "2013-02-13",
        "last_observation_date": "2013-02-16",
        "data_arc_in_days": 3,
        "observations_used": 27,
        "orbit_uncertainty": "8",
        "minimum_orbit_intersection": ".0245948",
        "jupiter_tisserand_invariant": "3.656",
        "epoch_osculation": "2456337.5",
        "eccentricity": ".498686885580007",
        "semi_major_axis": "2.016817286384182",
        "inclination": "4.739106792835984",
        "ascending_node_longitude": "139.8042041807917",
        "orbital_period": "1046.16035832632",
        "perihelion_distance": "1.011056955053333",
        "perihelion_argument": "5.72088382159836",
        "aphelion_distance": "3.022577617715031",
        "perihelion_time": "2456337.459321132671",
        "mean_anomaly": ".01399822897310749",
        "mean_motion": ".3441155049842831",
        "equinox": "J2000",
        "orbit_class": {
            "orbit_class_type": "APO",
            "orbit_class_description": "Near-Earth asteroid orbits which cross the Earth’s orbit similar to that of 1862 Apollo",
            "orbit_class_range": "a (semi-major axis) > 1.0 AU; q (perihelion) < 1.017 AU"
        }
    },
    "is_sentry_object": false
}